              M50 Cartesian                         M50 Keplerian  
    -----------------------------------       --------------------------------
     X    =       -2527963.28                 A    =         6785169.75  meter
     Y    =       -5641604.66  meter          E    =           .0006465
     Z    =       -2797841.27                 I    =           51.28178
     XDOT =       3864.119528                 Wp   =           65.55672
     YDOT =      -4244.176832  meter/sec      RA   =          267.13634  deg
     ZDOT =       5078.542585                 TA   =          262.54260
                                              MA   =          262.61607
                                              Ha   =            221.201  n.mi
                                              Hp   =            213.536
 
              M50 Cartesian                         J2K Cartesian  
    -----------------------------------       --------------------------------
     X    =       -8293842.78                 X    =        -2451098.55
     Y    =      -18509201.63  feet           Y    =        -5669444.28  meter
     Z    =       -9179269.27                 Z    =        -2809935.00
     XDOT =      12677.557507                 XDOT =        3886.621852
     YDOT =     -13924.464673  feet/sec       YDOT =       -4200.839796  meter/sec
     ZDOT =      16661.885123                 ZDOT =        5097.368644
 
              TDR Cartesian                         TDR Cartesian  
    -----------------------------------       --------------------------------
     X    =       19851779.25                 X    =         6050822.32
     Y    =       -4041948.28  feet           Y    =        -1231985.84  meter
     Z    =       -9230756.84                 Z    =        -2813534.69
     XDOT =      10584.310917                 XDOT =        3226.097968
     YDOT =      13833.110664  feet/sec       YDOT =        4216.332131  meter/sec
     ZDOT =      16744.408214                 ZDOT =        5103.695624
  
  
    The mean element set is posted at the UTC for which position is
    just north of the next ascending node relative to the above
    vector time
 
 
    TWO LINE MEAN ELEMENT SET
  
    ISS
    1 25544U 98067A   16127.10015202  .00016717  00000-0  10270-3 0  9117
    2 25544  51.6415 267.9909 0001825  78.2568 281.8789 15.54403377 38438
  
  
    Satellite: ISS
    Catalog Number: 25544
    Epoch time:      16127.10015202   =   yrday.fracday
    Element set:     911
    Inclination:       51.6415  deg
    RA of node:       267.9909  deg
    Eccentricity:     .0001825     
    Arg of perigee:    78.2568  deg
    Mean anomaly:     281.8789  deg
    Mean motion:   15.54403377  rev/day
    Decay rate:    1.67170E-04  rev/day^2
    Epoch rev:            3843
    Checksum:              319
 
 
    Coasting Arc #13 (Orbit 3858)
    ---------------------------------------
 
    Vector Time (GMT): 2016/128/02:16:00.000
    Vector Time (MET): N/A
    Weight (LBS)     : 945238.6
 
              M50 Cartesian                         M50 Keplerian  
    -----------------------------------       --------------------------------
     X    =        1783768.94                 A    =         6787993.51  meter
     Y    =        6448680.51  meter          E    =           .0015080
     Z    =        1104131.13                 I    =           51.29468
     XDOT =      -4425.555760                 Wp   =          118.51625
     YDOT =       2235.471510  meter/sec      RA   =          262.13663  deg
     ZDOT =      -5852.689403                 TA   =           49.44091
                                              MA   =           49.30972
                                              Ha   =            221.199  n.mi
                                              Hp   =            213.555
 
              M50 Cartesian                         J2K Cartesian  
    -----------------------------------       --------------------------------
     X    =        5852260.30                 X    =         1706162.09
     Y    =       21157088.30  feet           Y    =         6468193.86  meter
     Z    =        3622477.48                 Z    =         1112608.02
     XDOT =     -14519.539896                 XDOT =       -4421.793957
     YDOT =       7334.224113  feet/sec       YDOT =        2186.003115  meter/sec
     ZDOT =     -19201.736885                 ZDOT =       -5874.178962
 
              TDR Cartesian                         TDR Cartesian  
    -----------------------------------       --------------------------------
     X    =      -21894473.02                 X    =        -6673435.38
     Y    =        1497963.38  feet           Y    =          456579.24  meter
     Z    =        3658119.19                 Z    =         1114994.73
     XDOT =      -4209.013990                 XDOT =       -1282.907464
     YDOT =     -13971.103075  feet/sec       YDOT =       -4258.392217  meter/sec
     ZDOT =     -19295.462470                 ZDOT =       -5881.256961
  
  
    The mean element set is posted at the UTC for which position is
    just north of the next ascending node relative to the above
    vector time
 
 
    TWO LINE MEAN ELEMENT SET
  
    ISS
    1 25544U 98067A   16128.12879675  .00016717  00000-0  10270-3 0  9123
    2 25544  51.6424 262.8613 0001799  83.1198 277.0159 15.54407672 38595
  
  
    Satellite: ISS
    Catalog Number: 25544
    Epoch time:      16128.12879675   =   yrday.fracday
    Element set:     912
    Inclination:       51.6424  deg
    RA of node:       262.8613  deg
    Eccentricity:     .0001799     
    Arg of perigee:    83.1198  deg
    Mean anomaly:     277.0159  deg
    Mean motion:   15.54407672  rev/day
    Decay rate:    1.67170E-04  rev/day^2
    Epoch rev:            3859
    Checksum:              342
 
 
    Coasting Arc #14 (Orbit 3874)
    ---------------------------------------
 
    Vector Time (GMT): 2016/129/02:16:00.000
    Vector Time (MET): N/A
    Weight (LBS)     : 945238.6
 
              M50 Cartesian                         M50 Keplerian  
    -----------------------------------       --------------------------------
     X    =        -965076.66                 A    =         6788302.33  meter
     Y    =       -6678042.20  meter          E    =           .0014722
     Z    =         680643.06                 I    =           51.30132
     XDOT =       4857.303890                 Wp   =           55.78651
     YDOT =        -88.404162  meter/sec      RA   =          257.14160  deg
     ZDOT =       5935.703973                 TA   =          311.60219
                                              MA   =          311.72825
                                              Ha   =            221.166  n.mi
                                              Hp   =            213.574
 
              M50 Cartesian                         J2K Cartesian  
    -----------------------------------       --------------------------------
     X    =       -3166262.02                 X    =         -893635.74
     Y    =      -21909587.27  feet           Y    =        -6688434.91  meter
     Z    =        2233080.89                 Z    =          676128.13
     XDOT =      15936.036384                 XDOT =        4829.097772
     YDOT =       -290.039903  feet/sec       YDOT =         -34.244494  meter/sec
     ZDOT =      19474.094399                 ZDOT =        5959.231498
 
              TDR Cartesian                         TDR Cartesian  
    -----------------------------------       --------------------------------
     X    =       22122072.20                 X    =         6742807.61
     Y    =         866602.16  feet           Y    =          264140.34  meter
     Z    =        2214678.86                 Z    =          675034.12
     XDOT =      -2535.488488                 XDOT =        -772.816891
     YDOT =      13984.831029  feet/sec       YDOT =        4262.576498  meter/sec
     ZDOT =      19576.287720                 ZDOT =        5966.852497
  
  
    The mean element set is posted at the UTC for which position is
    just north of the next ascending node relative to the above
    vector time
 
 
    TWO LINE MEAN ELEMENT SET
  
    ISS
    1 25544U 98067A   16129.15743526  .00016717  00000-0  10270-3 0  9133
    2 25544  51.6426 257.7316 0001741  83.0843 277.0507 15.54416526 38756
  
  
    Satellite: ISS
    Catalog Number: 25544
    Epoch time:      16129.15743526   =   yrday.fracday
    Element set:     913
    Inclination:       51.6426  deg
    RA of node:       257.7316  deg
    Eccentricity:     .0001741     
    Arg of perigee:    83.0843  deg
    Mean anomaly:     277.0507  deg
    Mean motion:   15.54416526  rev/day
    Decay rate:    1.67170E-04  rev/day^2
    Epoch rev:            3875
    Checksum:              313
 
 
    Coasting Arc #15 (Orbit 3889)
    ---------------------------------------
 
    Vector Time (GMT): 2016/130/02:16:00.000
    Vector Time (MET): N/A
    Weight (LBS)     : 945238.6
 
              M50 Cartesian                         M50 Keplerian  
    -----------------------------------       --------------------------------
     X    =          -4961.71                 A    =         6785939.73  meter
     Y    =        6335226.64  meter          E    =           .0006818
     Z    =       -2430765.09                 I    =           51.30275
     XDOT =      -5130.966988                 Wp   =          122.06860
     YDOT =      -2038.302085  meter/sec      RA   =          252.14445  deg
     ZDOT =      -5316.425471                 TA   =           85.25360
                                              MA   =           85.17575
                                              Ha   =            221.152  n.mi
                                              Hp   =            213.540
 
